STARLINK-30912          
1 58422U 23180W   26068.53218252 -.00001759  00000+0 -54392-4 0  9995
2 58422  43.0033 271.1870 0002016 274.9961  85.0660 15.27584533129278
TRANSPORTER-10 OBJECT AG
1 59128U 24043AG  26068.92552531  .00009498  00000+0  32170-3 0  9997
2 59128  97.5471 205.7101 0009300 226.5958 133.4509 15.30759727111920
